{"type": "FeatureCollection", "features": [ {"type": "Feature", "properties": {"norad_id": 43437, "name": "SENTINEL-3B", "group": "resource", "lat": -73.89024535446481, "lon": 95.20075361826245, "alt_km": 811.0625356333321, "timestamp": "2025-12-24T11:32:59.661548+00:00", "meta": {"OBJECT_NAME": "SENTINEL-3B", "OBJECT_ID": "2018-039A", "EPOCH": "2025-12-24T03:29:30.270336", "MEAN_MOTION": 14.2673837, "ECCENTRICITY": 0.0001605, "INCLINATION": 98.6251, "RA_OF_ASC_NODE": 63.1665, "ARG_OF_PERICENTER": 90.5457, "MEAN_ANOMALY": 269.5907, "EPHEMERIS_TYPE": 0, "CLASSIFICATION_TYPE": "U", "NORAD_CAT_ID": 43437, "ELEMENT_SET_NO": 999, "REV_AT_EPOCH": 39916, "BSTAR": 7.7374e-05, "MEAN_MOTION_DOT": 1.44e-06, "MEAN_MOTION_DDOT": 0}, "tle": {"line1": "1 43437U 18039A   25358.14548924  .00000144  00000+0  77374-4 0  9992", "line2": "2 43437  98.6251  63.1665 0001605  90.5457 269.5907 14.26738370399160"}}, "geometry": {"type": "Point", "coordinates": [95.20075361826245, -73.89024535446481]}}, {"type": "Feature", "properties": {"norad_id": 43461, "name": "GAOFEN-5 01", "group": "resource", "lat": -72.25745607997615, "lon": 114.02560926904962, "alt_km": 698.7426137123011, "timestamp": "2025-12-24T11:32:59.661558+00:00", "meta": {"OBJECT_NAME": "GAOFEN-5 01", "OBJECT_ID": "2018-043A", "EPOCH": "2025-12-24T03:48:41.649696", "MEAN_MOTION": 14.6042172, "ECCENTRICITY": 5.03e-05, "INCLINATION": 98.4344, "RA_OF_ASC_NODE": 321.3264, "ARG_OF_PERICENTER": 252.0081, "MEAN_ANOMALY": 108.1063, "EPHEMERIS_TYPE": 0, "CLASSIFICATION_TYPE": "U", "NORAD_CAT_ID": 43461, "ELEMENT_SET_NO": 999, "REV_AT_EPOCH": 40614, "BSTAR": 0.00010593, "MEAN_MOTION_DOT": 4.64e-06, "MEAN_MOTION_DDOT": 0}, "tle": {"line1": "1 43461U 18043A   25358.15881539  .00000464  00000+0  10593-3 0  9991", "line2": "2 43461  98.4344 321.3264 0000503 252.0081 108.1063 14.60421720406140"}}, "geometry": {"type": "Point", "coordinates": [114.02560926904962, -72.25745607997615]}}, {"type": "Feature", "properties": {"norad_id": 43484, "name": "GAOFEN-6", "group": "resource", "lat": -31.05714885635128, "lon": -122.38279343270474, "alt_km": 655.0101597731391, "timestamp": "2025-12-24T11:32:59.661568+00:00", "meta": {"OBJECT_NAME": "GAOFEN-6", "OBJECT_ID": "2018-048A", "EPOCH": "2025-12-24T04:05:27.066624", "MEAN_MOTION": 14.76586375, "ECCENTRICITY": 0.0012613, "INCLINATION": 97.8016, "RA_OF_ASC_NODE": 62.053, "ARG_OF_PERICENTER": 29.7533, "MEAN_ANOMALY": 330.4392, "EPHEMERIS_TYPE": 0, "CLASSIFICATION_TYPE": "U", "NORAD_CAT_ID": 43484, "ELEMENT_SET_NO": 999, "REV_AT_EPOCH": 40756, "BSTAR": 0.0001447, "MEAN_MOTION_DOT": 9.62e-06, "MEAN_MOTION_DDOT": 0}, "tle": {"line1": "1 43484U 18048A   25358.17045216  .00000962  00000+0  14470-3 0  9998", "line2": "2 43484  97.8016  62.0530 0012613  29.7533 330.4392 14.76586375407562"}}, "geometry": {"type": "Point", "coordinates": [-122.38279343270474, -31.05714885635128]}}, {"type": "Feature", "properties": {"norad_id": 43585, "name": "GAOFEN-11 01", "group": "resource", "lat": -29.907420347565417, "lon": -122.82403115834725, "alt_km": 422.116544319485, "timestamp": "2025-12-24T11:32:59.661579+00:00", "meta": {"OBJECT_NAME": "GAOFEN-11 01", "OBJECT_ID": "2018-063A", "EPOCH": "2025-12-24T04:26:46.902912", "MEAN_MOTION": 15.49538596, "ECCENTRICITY": 0.0003903, "INCLINATION": 97.1543, "RA_OF_ASC_NODE": 61.0256, "ARG_OF_PERICENTER": 252.6449, "MEAN_ANOMALY": 107.4376, "EPHEMERIS_TYPE": 0, "CLASSIFICATION_TYPE": "U", "NORAD_CAT_ID": 43585, "ELEMENT_SET_NO": 999, "REV_AT_EPOCH": 41319, "BSTAR": 0.00035829, "MEAN_MOTION_DOT": 0.00019691, "MEAN_MOTION_DDOT": 0}, "tle": {"line1": "1 43585U 18063A   25358.18526508  .00019691  00000+0  35829-3 0  9996", "line2": "2 43585  97.1543  61.0256 0003903 252.6449 107.4376 15.49538596413194"}}, "geometry": {"type": "Point", "coordinates": [-122.82403115834725, -29.907420347565417]}}, {"type": "Feature", "properties": {"norad_id": 43613, "name": "ICESAT-2", "group": "resource", "lat": 47.75828474436796, "lon": 66.1156978912607, "alt_km": 475.18806942350875, "timestamp": "2025-12-24T11:32:59.661589+00:00", "meta": {"OBJECT_NAME": "ICESAT-2", "OBJECT_ID": "2018-070A", "EPOCH": "2025-12-23T22:24:04.787136", "MEAN_MOTION": 15.28198972, "ECCENTRICITY": 0.0003013, "INCLINATION": 92.004, "RA_OF_ASC_NODE": 243.7581, "ARG_OF_PERICENTER": 109.8386, "MEAN_ANOMALY": 250.3188, "EPHEMERIS_TYPE": 0, "CLASSIFICATION_TYPE": "U", "NORAD_CAT_ID": 43613, "ELEMENT_SET_NO": 999, "REV_AT_EPOCH": 40569, "BSTAR": 0.00033244, "MEAN_MOTION_DOT": 9.134e-05, "MEAN_MOTION_DDOT": 0}, "tle": {"line1": "1 43613U 18070A   25357.93338874  .00009134  00000+0  33244-3 0  9995", "line2": "2 43613  92.0040 243.7581 0003013 109.8386 250.3188 15.28198972405699"}}, "geometry": {"type": "Point", "coordinates": [66.1156978912607, 47.75828474436796]}}, {"type": "Feature", "properties": {"norad_id": 43719, "name": "HYSIS", "group": "resource", "lat": -25.078213132529157, "lon": 65.17855533851677, "alt_km": 639.0425130272743, "timestamp": "2025-12-24T11:32:59.661600+00:00", "meta": {"OBJECT_NAME": "HYSIS", "OBJECT_ID": "2018-096A", "EPOCH": "2025-12-24T03:32:38.281056", "MEAN_MOTION": 14.7867569, "ECCENTRICITY": 8.44e-05, "INCLINATION": 98.0082, "RA_OF_ASC_NODE": 61.0692, "ARG_OF_PERICENTER": 57.4774, "MEAN_ANOMALY": 302.6518, "EPHEMERIS_TYPE": 0, "CLASSIFICATION_TYPE": "U", "NORAD_CAT_ID": 43719, "ELEMENT_SET_NO": 999, "REV_AT_EPOCH": 38155, "BSTAR": 0.0002341, "MEAN_MOTION_DOT": 1.664e-05, "MEAN_MOTION_DDOT": 0}, "tle": {"line1": "1 43719U 18096A   25358.14766529  .00001664  00000+0  23410-3 0  9990", "line2": "2 43719  98.0082  61.0692 0000844  57.4774 302.6518 14.78675690381557"}}, "geometry": {"type": "Point", "coordinates": [65.17855533851677, -25.078213132529157]}}, {"type": "Feature", "properties": {"norad_id": 43783, "name": "KAZSTSAT", "group": "resource", "lat": 4.139403933556132, "lon": 32.61717215665933, "alt_km": 571.0562929455573, "timestamp": "2025-12-24T11:32:59.661611+00:00", "meta": {"OBJECT_NAME": "KAZSTSAT", "OBJECT_ID": "2018-099AB", "EPOCH": "2025-12-24T01:55:16.633632", "MEAN_MOTION": 14.99370075, "ECCENTRICITY": 0.0006223, "INCLINATION": 97.4517, "RA_OF_ASC_NODE": 32.7761, "ARG_OF_PERICENTER": 279.4355, "MEAN_ANOMALY": 80.6165, "EPHEMERIS_TYPE": 0, "CLASSIFICATION_TYPE": "U", "NORAD_CAT_ID": 43783, "ELEMENT_SET_NO": 999, "REV_AT_EPOCH": 38506, "BSTAR": 5.105e-05, "MEAN_MOTION_DOT": 5.69e-06, "MEAN_MOTION_DDOT": 0}, "tle": {"line1": "1 43783U 18099AB  25358.08005363  .00000569  00000+0  51050-4 0  9994", "line2": "2 43783  97.4517  32.7761 0006223 279.4355  80.6165 14.99370075385067"}}, "geometry": {"type": "Point", "coordinates": [32.61717215665933, 4.139403933556132]}}, {"type": "Feature", "properties": {"norad_id": 43831, "name": "SAUDISAT 5A", "group": "resource", "lat": 82.65389344971861, "lon": -28.87905962440998, "alt_km": 476.0034299007684, "timestamp": "2025-12-24T11:32:59.661622+00:00", "meta": {"OBJECT_NAME": "SAUDISAT 5A", "OBJECT_ID": "2018-102A", "EPOCH": "2025-12-24T04:51:48.191904", "MEAN_MOTION": 15.25793083, "ECCENTRICITY": 0.0011135, "INCLINATION": 97.3331, "RA_OF_ASC_NODE": 58.1722, "ARG_OF_PERICENTER": 40.6388, "MEAN_ANOMALY": 319.5679, "EPHEMERIS_TYPE": 0, "CLASSIFICATION_TYPE": "U", "NORAD_CAT_ID": 43831, "ELEMENT_SET_NO": 999, "REV_AT_EPOCH": 38897, "BSTAR": 0.00027823, "MEAN_MOTION_DOT": 7.051e-05, "MEAN_MOTION_DDOT": 0}, "tle": {"line1": "1 43831U 18102A   25358.20264111  .00007051  00000+0  27823-3 0  9998", "line2": "2 43831  97.3331  58.1722 0011135  40.6388 319.5679 15.25793083388970"}}, "geometry": {"type": "Point", "coordinates": [-28.87905962440998, 82.65389344971861]}}, {"type": "Feature", "properties": {"norad_id": 43833, "name": "SAUDISAT 5B", "group": "resource", "lat": 23.002502279406137, "lon": -115.65664270591557, "alt_km": 490.4833079720938, "timestamp": "2025-12-24T11:32:59.661633+00:00", "meta": {"OBJECT_NAME": "SAUDISAT 5B", "OBJECT_ID": "2018-102C", "EPOCH": "2025-12-24T04:34:19.447104", "MEAN_MOTION": 15.26139616, "ECCENTRICITY": 0.0011884, "INCLINATION": 97.3427, "RA_OF_ASC_NODE": 60.9196, "ARG_OF_PERICENTER": 42.714, "MEAN_ANOMALY": 317.502, "EPHEMERIS_TYPE": 0, "CLASSIFICATION_TYPE": "U", "NORAD_CAT_ID": 43833, "ELEMENT_SET_NO": 999, "REV_AT_EPOCH": 38908, "BSTAR": 0.00025865, "MEAN_MOTION_DOT": 6.619e-05, "MEAN_MOTION_DDOT": 0}, "tle": {"line1": "1 43833U 18102C   25358.19050286  .00006619  00000+0  25865-3 0  9997", "line2": "2 43833  97.3427  60.9196 0011884  42.7140 317.5020 15.26139616389082"}}, "geometry": {"type": "Point", "coordinates": [-115.65664270591557, 23.002502279406137]}}, {"type": "Feature", "properties": {"norad_id": 44622, "name": "GAOFEN-10R", "group": "resource", "lat": 72.51896188035636, "lon": -80.59482070736362, "alt_km": 611.5035204018204, "timestamp": "2025-12-24T11:32:59.661644+00:00", "meta": {"OBJECT_NAME": "GAOFEN-10R", "OBJECT_ID": "2019-066A", "EPOCH": "2025-12-24T04:44:16.273248", "MEAN_MOTION": 14.82829218, "ECCENTRICITY": 0.0007072, "INCLINATION": 98.0293, "RA_OF_ASC_NODE": 305.7492, "ARG_OF_PERICENTER": 8.2683, "MEAN_ANOMALY": 351.8646, "EPHEMERIS_TYPE": 0, "CLASSIFICATION_TYPE": "U", "NORAD_CAT_ID": 44622, "ELEMENT_SET_NO": 999, "REV_AT_EPOCH": 33644, "BSTAR": 0.00020145, "MEAN_MOTION_DOT": 1.576e-05, "MEAN_MOTION_DDOT": 0}, "tle": {"line1": "1 44622U 19066A   25358.19741057  .00001576  00000+0  20145-3 0  9990", "line2": "2 44622  98.0293 305.7492 0007072   8.2683 351.8646 14.82829218336442"}}, "geometry": {"type": "Point", "coordinates": [-80.59482070736362, 72.51896188035636]}}]}